OBJECT_NAME,OBJECT_ID,EPOCH,MEAN_MOTION,ECCENTRICITY,INCLINATION,RA_OF_ASC_NODE,ARG_OF_PERICENTER,MEAN_ANOMALY,EPHEMERIS_TYPE,CLASSIFICATION_TYPE,NORAD_CAT_ID,ELEMENT_SET_NO,REV_AT_EPOCH,BSTAR,MEAN_MOTION_DOT,MEAN_MOTION_DDOT
SAUDISAT 1C (SO-50),2002-058C,2026-07-07T02:45:35.668224,14.83088031,.0074752,64.5520,67.3282,258.7570,100.5128,0,U,27607,999,26741,.10582E-3,.749E-5,0
SAUDISAT 2,2004-025F,2026-07-06T22:46:15.146688,14.56695117,.0023655,98.5514,188.4419,234.4243,125.4749,0,U,28371,999,16862,.58559E-4,.213E-5,0
SAUDISAT 3,2007-012B,2026-07-07T07:39:45.071424,14.71437357,.0015076,98.1464,138.7341,158.5157,201.6685,0,U,31118,999,3070,.44618E-4,.226E-5,0
PISAT,2016-059B,2026-07-07T10:36:50.056128,14.69020153,.0030018,97.8185,188.0251,138.5610,221.7881,0,U,41784,999,52271,.1464E-3,.817E-5,0
FLYING LAPTOP,2017-042G,2026-07-07T12:21:55.713888,15.01277987,.0019894,97.4784,343.2786,56.9148,303.3984,0,U,42831,999,48950,.12496E-3,.1555E-4,0
SALSAT,2020-068K,2026-07-06T23:06:33.434208,15.30092809,.0008388,97.8858,192.2352,224.1445,135.9125,0,U,46495,999,31838,.20799E-3,.5977E-4,0
